CCSDS_OMM_VERS,COMMENT,CREATION_DATE,ORIGINATOR,OBJECT_NAME,OBJECT_ID,CENTER_NAME,REF_FRAME,TIME_SYSTEM,MEAN_ELEMENT_THEORY,EPOCH,MEAN_MOTION,ECCENTRICITY,INCLINATION,RA_OF_ASC_NODE,ARG_OF_PERICENTER,MEAN_ANOMALY,EPHEMERIS_TYPE,CLASSIFICATION_TYPE,NORAD_CAT_ID,ELEMENT_SET_NO,REV_AT_EPOCH,BSTAR,MEAN_MOTION_DOT,MEAN_MOTION_DDOT,SEMIMAJOR_AXIS,PERIOD,APOAPSIS,PERIAPSIS,OBJECT_TYPE,RCS_SIZE,COUNTRY_CODE,LAUNCH_DATE,SITE,DECAY_DATE,FILE,GP_ID,TLE_LINE0,TLE_LINE1,TLE_LINE2
2.0,GENERATED VIA SPACE-TRACK.ORG API,2022-08-20T07:36:12,18 SPCS,STARLINK-2290,2021-024T,EARTH,TEME,UTC,SGP4,2022-08-20T04:27:21.570048,15.06409552,0.0002072,53.0538,16.3495,72.2645,287.857,0,U,47994,999,7882,-0.00013676,-2.319e-05,0.0,6925.319,95.592,548.619,545.749,PAYLOAD,LARGE,US,2021-03-24,AFETR,,3540878,210554140,0 STARLINK-2290,1 47994U 21024T   22232.18566632 -.00002319  00000-0 -13676-3 0  9993,2 47994  53.0538  16.3495 0002072  72.2645 287.8570 15.06409552 78823
2.0,GENERATED VIA SPACE-TRACK.ORG API,2022-08-20T08:06:12,18 SPCS,PAZ,2018-020A,EARTH,TEME,UTC,SGP4,2022-08-20T04:27:01.156320,15.19152357,0.0001592,97.4464,238.6174,82.8688,345.9456,0,U,43215,999,24892,1.0837e-05,1.61e-06,0.0,6886.538,94.79,509.499,507.307,PAYLOAD,LARGE,SPN,2018-02-22,AFWTR,,3540908,210554746,0 PAZ,1 43215U 18020A   22232.18543005  .00000161  00000-0  10837-4 0  9994,2 43215  97.4464 238.6174 0001592  82.8688 345.9456 15.19152357248929
2.0,GENERATED VIA SPACE-TRACK.ORG API,2022-08-20T15:06:12,18 SPCS,STARLINK-1566,2020-055BE,EARTH,TEME,UTC,SGP4,2022-08-20T04:26:42.455040,15.06377534,0.0001421,53.0549,161.3437,86.043,274.0721,0,U,46079,999,11321,-4.0306e-05,-8.81e-06,0.0,6925.417,95.594,548.267,546.298,PAYLOAD,LARGE,US,2020-08-07,AFETR,,3541248,210560470,0 STARLINK-1566,1 46079U 20055BE  22232.18521360 -.00000881  00000-0 -40306-4 0  9991,2 46079  53.0549 161.3437 0001421  86.0430 274.0721 15.06377534113210
2.0,GENERATED VIA SPACE-TRACK.ORG API,2022-08-20T08:36:13,18 SPCS,STARLINK-1282,2020-019BB,EARTH,TEME,UTC,SGP4,2022-08-20T04:26:41.916768,15.06401402,0.0001769,53.0562,201.3434,69.6582,290.4597,0,U,45409,999,13430,-1.5194e-05,-5.08e-06,0.0,6925.344,95.592,548.434,545.984,PAYLOAD,LARGE,US,2020-03-18,AFETR,,3540948,210555459,0 STARLINK-1282,1 45409U 20019BB  22232.18520737 -.00000508  00000-0 -15194-4 0  9997,2 45409  53.0562 201.3434 0001769  69.6582 290.4597 15.06401402134301
2.0,GENERATED VIA SPACE-TRACK.ORG API,2022-08-20T08:46:12,18 SPCS,STARLINK-1896,2020-074X,EARTH,TEME,UTC,SGP4,2022-08-20T04:26:41.420832,15.06393187,0.0001104,53.0552,41.3532,88.649,271.4625,0,U,46760,999,10092,-2.3368e-05,-6.29e-06,0.0,6925.369,95.593,547.999,546.47,PAYLOAD,LARGE,US,2020-10-24,AFETR,,3540965,210555684,0 STARLINK-1896,1 46760U 20074X   22232.18520163 -.00000629  00000-0 -23368-4 0  9998,2 46760  53.0552  41.3532 0001104  88.6490 271.4625 15.06393187100926
2.0,GENERATED VIA SPACE-TRACK.ORG API,2022-08-20T06:56:12,18 SPCS,STARLINK-2459,2021-027AD,EARTH,TEME,UTC,SGP4,2022-08-20T04:25:59.589408,15.0639368,0.0001885,53.055,216.3436,60.002,300.1156,0,U,48119,999,7673,5.7306e-05,5.72e-06,0.0,6925.368,95.593,548.538,545.927,PAYLOAD,LARGE,US,2021-04-07,AFETR,,3540796,210552539,0 STARLINK-2459,1 48119U 21027AD  22232.18471747  .00000572  00000-0  57306-4 0  9994,2 48119  53.0550 216.3436 0001885  60.0020 300.1156 15.06393680 76738
2.0,GENERATED VIA SPACE-TRACK.ORG API,2022-08-20T08:16:12,18 SPCS,HELIOS 2A,2004-049A,EARTH,TEME,UTC,SGP4,2022-08-20T04:25:55.723008,14.93266487,0.0013297,98.2359,178.1967,229.3966,130.6106,0,U,28492,999,94463,7.2182e-05,6.93e-06,0.0,6965.896,96.433,597.023,578.498,PAYLOAD,LARGE,FR,2004-12-18,FRGUI,,3540933,210554960,0 HELIOS 2A,1 28492U 04049A   22232.18467272  .00000693  00000-0  72182-4 0  9992,2 28492  98.2359 178.1967 0013297 229.3966 130.6106 14.93266487944634
2.0,GENERATED VIA SPACE-TRACK.ORG API,2022-08-20T08:36:13,18 SPCS,HJ-1C,2012-064A,EARTH,TEME,UTC,SGP4,2022-08-20T04:25:53.207904,15.54497536,0.0006492,97.0786,258.4949,2.9274,65.3302,0,U,38997,999,54840,0.00030783,0.00020205,0.0,6781.751,92.634,408.018,399.213,PAYLOAD,LARGE,PRC,2012-11-18,TSC,,3540950,210555493,0 HJ-1C,1 38997U 12064A   22232.18464361  .00020205  00000-0  30783-3 0  9996,2 38997  97.0786 258.4949 0006492   2.9274  65.3302 15.54497536548400
2.0,GENERATED VIA SPACE-TRACK.ORG API,2022-08-20T07:16:13,18 SPCS,SSA,1983-008E,EARTH,TEME,UTC,SGP4,2022-08-20T04:25:48.171648,13.59393744,0.0868325,63.2997,227.5399,109.9854,259.6761,0,U,13844,999,16754,0.00025552,2.759e-05,0.0,7416.033,105.93,1681.851,393.945,PAYLOAD,LARGE,US,1983-02-09,AFWTR,,3540841,210553434,0 SSA,1 13844U 83008E   22232.18458532  .00002759  00000-0  25552-3 0  9991,2 13844  63.2997 227.5399 0868325 109.9854 259.6761 13.59393744167540
2.0,GENERATED VIA SPACE-TRACK.ORG API,2022-08-20T08:36:13,18 SPCS,CARTOSAT 2F,2018-004A,EARTH,TEME,UTC,SGP4,2022-08-20T04:25:33.494880,15.19321002,0.0004698,97.444,291.706,154.7255,290.4412,0,U,43111,999,25522,0.00012541,2.581e-05,0.0,6886.028,94.779,511.129,504.658,PAYLOAD,LARGE,IND,2018-01-12,SRI,,3540945,210555418,0 CARTOSAT 2F,1 43111U 18004A   22232.18441545  .00002581  00000-0  12541-3 0  9998,2 43111  97.4440 291.7060 0004698 154.7255 290.4412 15.19321002255223
2.0,GENERATED VIA SPACE-TRACK.ORG API,2022-08-20T14:56:12,18 SPCS,STARLINK-1724,2020-062BC,EARTH,TEME,UTC,SGP4,2022-08-20T04:24:43.182432,15.06387019,0.0001406,53.0562,36.3362,73.1955,286.9188,0,U,46375,999,10955,1.2783e-05,-9.1e-07,0.0,6925.388,95.593,548.227,546.28,PAYLOAD,LARGE,US,2020-09-03,AFETR,,3541196,210558980,0 STARLINK-1724,1 46375U 20062BC  22232.18383313 -.00000091  00000-0  12783-4 0  9992,2 46375  53.0562  36.3362 0001406  73.1955 286.9188 15.06387019109554
2.0,GENERATED VIA SPACE-TRACK.ORG API,2022-08-20T07:46:12,18 SPCS,YAOGAN-33,2020-103A,EARTH,TEME,UTC,SGP4,2022-08-20T04:24:43.073568,14.59066774,0.0002135,98.2031,122.4655,122.5442,237.5968,0,U,47302,999,8758,6.3471e-05,2.52e-06,0.0,7074.326,98.693,697.701,694.681,PAYLOAD,LARGE,PRC,2020-12-27,JSC,,3540889,210554392,0 YAOGAN-33,1 47302U 20103A   22232.18383187  .00000252  00000-0  63471-4 0  9996,2 47302  98.2031 122.4655 0002135 122.5442 237.5968 14.59066774 87584
2.0,GENERATED VIA SPACE-TRACK.ORG API,2022-08-20T08:56:12,18 SPCS,STARLINK-1899,2020-074BA,EARTH,TEME,UTC,SGP4,2022-08-20T04:24:42.530112,15.06386778,0.0001135,53.058,356.3462,91.8207,268.2912,0,U,46787,999,10121,-0.0001077,-1.885e-05,0.0,6925.389,95.593,548.04,546.468,PAYLOAD,LARGE,US,2020-10-24,AFETR,,3540973,210555758,0 STARLINK-1899,1 46787U 20074BA  22232.18382558 -.00001885  00000-0 -10770-3 0  9998,2 46787  53.0580 356.3462 0001135  91.8207 268.2912 15.06386778101217
2.0,GENERATED VIA SPACE-TRACK.ORG API,2022-08-20T08:26:13,18 SPCS,STARLINK-2275,2021-041AZ,EARTH,TEME,UTC,SGP4,2022-08-20T04:24:42.325344,15.06388575,0.0001368,53.0538,196.3454,83.0715,277.043,0,U,48600,999,7090,-0.00017143,-2.833e-05,0.0,6925.384,95.593,548.196,546.301,PAYLOAD,LARGE,US,2021-05-15,AFETR,,3540941,210555216,0 STARLINK-2275,1 48600U 21041AZ  22232.18382321 -.00002833  00000-0 -17143-3 0  9992,2 48600  53.0538 196.3454 0001368  83.0715 277.0430 15.06388575 70905
2.0,GENERATED VIA SPACE-TRACK.ORG API,2022-08-20T06:56:12,18 SPCS,STARLINK-1530,2020-055Y,EARTH,TEME,UTC,SGP4,2022-08-20T04:24:02.238336,15.06396027,0.0001616,53.055,181.3614,70.9233,289.1931,0,U,46049,999,11293,3.4074e-05,2.26e-06,0.0,6925.361,95.592,548.345,546.107,PAYLOAD,LARGE,US,2020-08-07,AFETR,,3540800,210552619,0 STARLINK-1530,1 46049U 20055Y   22232.18335924  .00000226  00000-0  34074-4 0  9993,2 46049  53.0550 181.3614 0001616  70.9233 289.1931 15.06396027112933
2.0,GENERATED VIA SPACE-TRACK.ORG API,2022-08-20T07:16:13,18 SPCS,STARLINK-3338,2022-001K,EARTH,TEME,UTC,SGP4,2022-08-20T04:23:33.003168,15.0884749,0.0002157,53.2158,223.8471,55.39,304.7295,0,U,50812,999,3591,3.6186e-06,-2.31e-06,0.0,6917.857,95.437,541.215,538.23,PAYLOAD,LARGE,US,2022-01-06,AFETR,,3540839,210553410,0 STARLINK-3338,1 50812U 22001K   22232.18302087 -.00000231  00000-0  36186-5 0  9997,2 50812  53.2158 223.8471 0002157  55.3900 304.7295 15.08847490 35910
2.0,GENERATED VIA SPACE-TRACK.ORG API,2022-08-20T08:16:12,18 SPCS,STARLINK-2081,2021-005T,EARTH,TEME,UTC,SGP4,2022-08-20T04:23:23.131104,15.06378052,0.0001049,53.0554,126.3592,105.2802,254.8303,0,U,47366,999,8747,-8.0457e-05,-1.479e-05,0.0,6925.416,95.594,548.007,546.554,PAYLOAD,LARGE,US,2021-01-20,AFETR,,3540933,210555056,0 STARLINK-2081,1 47366U 21005T   22232.18290661 -.00001479  00000-0 -80457-4 0  9999,2 47366  53.0554 126.3592 0001049 105.2802 254.8303 15.06378052 87478
2.0,GENERATED VIA SPACE-TRACK.ORG API,2022-08-20T07:16:13,18 SPCS,STARLINK-1880,2020-088AV,EARTH,TEME,UTC,SGP4,2022-08-20T04:23:22.609248,15.06394901,0.000118,53.0556,6.345,87.8461,272.2663,0,U,47165,999,9652,2.6737e-07,-2.77e-06,0.0,6925.364,95.592,548.046,546.412,PAYLOAD,LARGE,US,2020-11-25,AFETR,,3540853,210553343,0 STARLINK-1880,1 47165U 20088AV  22232.18290057 -.00000277  00000-0  26737-6 0  9992,2 47165  53.0556   6.3450 0001180  87.8461 272.2663 15.06394901 96529
2.0,GENERATED VIA SPACE-TRACK.ORG API,2022-08-20T08:06:12,18 SPCS,STARLINK-2634,2021-040T,EARTH,TEME,UTC,SGP4,2022-08-20T04:23:22.597152,15.06395475,0.0001544,53.0524,246.3632,71.8464,288.2693,0,U,48445,999,7234,5.6006e-05,5.53e-06,0.0,6925.362,95.592,548.297,546.158,PAYLOAD,LARGE,US,2021-05-09,AFETR,,3540913,210554647,0 STARLINK-2634,1 48445U 21040T   22232.18290043  .00000553  00000-0  56006-4 0  9994,2 48445  53.0524 246.3632 0001544  71.8464 288.2693 15.06395475 72345
2.0,GENERATED VIA SPACE-TRACK.ORG API,2022-08-20T07:36:12,18 SPCS,STARLINK-1795,2020-073AC,EARTH,TEME,UTC,SGP4,2022-08-20T04:23:22.421760,15.0638436,0.0001409,53.0535,286.3652,73.8222,286.2922,0,U,46696,999,10232,-0.00024198,-3.882e-05,0.0,6925.396,95.593,548.237,546.286,PAYLOAD,LARGE,US,2020-10-18,AFETR,,3540878,210554145,0 STARLINK-1795,1 46696U 20073AC  22232.18289840 -.00003882  00000-0 -24198-3 0  9994,2 46696  53.0535 286.3652 0001409  73.8222 286.2922 15.06384360102329
